GOMX-4A                 
1 43197U 18015F   19084.15355531  .00000375  00000-0  18397-4 0  9996
2 43197  97.3776 212.9984 0017333 246.6968 233.5269 15.23938314 63321
1KUNS-PF                
1 43466U 98067NP  19084.13718236  .00015148  00000-0  16958-3 0  9997
2 43466  51.6391  47.6930 0001732  96.3470 263.7722 15.62930456 49521
UBAKUSAT                
1 43467U 98067NQ  19084.12120620  .00009728  00000-0  12074-3 0  9993
2 43467  51.6386  49.8302 0003473  97.8434 262.2954 15.60735107 49506
BATSU-CS1 (IRAZU)       
1 43468U 98067NR  19083.35624473  .00019890  00000-0  20666-3 0  9990
2 43468  51.6383  49.9699 0001823  91.4904 268.6300 15.64614936149419
CUBERRT                 
1 43546U 98067NU  19083.38618867  .00017541  00000-0  20803-3 0  9994
2 43546  51.6389  55.4143 0005361 153.8335 206.2930 15.61291952 39499
TEMPEST-D               
1 43547U 98067NV  19084.19486941  .00003061  00000-0  48490-4 0  9996
2 43547  51.6395  54.8114 0005831 156.6195 203.5063 15.56921227 39255
RAINCUBE                
1 43548U 98067NW  19084.16614105  .00010132  00000-0  13239-3 0  9998
2 43548  51.6381  53.1172 0005585 162.0973 198.0217 15.59306856 39727
HALOSAT                 
1 43549U 98067NX  19084.16713443  .00008882  00000-0  11705-3 0  9999
2 43549  51.6385  53.1279 0005333 165.8622 194.2521 15.59266400 39280
ENDUROSAT ONE           
1 43551U 98067NZ  19083.36338921  .00011698  00000-0  14616-3 0  9990
2 43551  51.6391  56.0124 0005637 169.1674 190.9442 15.60318474 39581
EQUISAT                 
1 43552U 98067PA  19083.35250075  .00010195  00000-0  13194-3 0  9994
2 43552  51.6399  56.6985 0005999 170.1371 189.9741 15.59552444 39538
AEROCUBE 12A            
1 43556U 18046C   19083.54908600  .00001569  00000-0  68586-4 0  9993
2 43556  51.6418 109.7831 0008870 121.0619 239.1232 15.28417632 38385
AEROCUBE 12B            
1 43557U 18046D   19083.55627443  .00001017  00000-0  49074-4 0  9997
2 43557  51.6416 109.8289 0008939 120.7709 239.4152 15.28323631 38338
UITMSAT-1               
1 43589U 98067PD  19084.12401243  .00011708  00000-0  15123-3 0  9990
2 43589  51.6374  53.5767 0005106 179.6396 180.4601 15.59436721 35385
MAYA-1                  
1 43590U 98067PE  19083.22309910  .00011132  00000-0  14410-3 0  9999
2 43590  51.6370  58.0610 0005161 177.7107 182.3910 15.59438132 35179
BHUTAN-1                
1 43591U 98067PF  19084.17796601  .00011835  00000-0  15235-3 0  9998
2 43591  51.6391  53.1979 0005345 181.6668 178.4308 15.59514040 35324
SIRIUSSAT-1             
1 43595U 98067PG  19083.80407129  .00010710  00000-0  14200-3 0  9997
2 43595  51.6376  55.9398 0004032 130.3068 229.8278 15.58848978 34430
SIRIUSSAT-2             
1 43596U 98067PH  19083.76141215  .00009813  00000-0  13145-3 0  9993
2 43596  51.6386  56.4280 0004568 133.3348 226.8026 15.58687137 34421
TANUSHA-3               
1 43597U 98067PJ  19083.76353389  .00012711  00000-0  16249-3 0  9990
2 43597  51.6373  55.6487 0003826 141.8008 218.3256 15.59623572 34437
SURFSAT                 
1 43614U 18070B   19083.67448513  .00001871  00000-0  51629-4 0  9997
2 43614  93.0338 328.1665 0013606 280.1609  79.8109 15.37119421 29198
CP7 (DAVE)              
1 43615U 18070C   19083.74166716  .00001758  00000-0  48607-4 0  9994
2 43615  93.0343 328.1954 0013660 279.3828  80.5880 15.37068599 29205
ELFIN-B                 
1 43616U 18070D   19083.64870847  .00002520  00000-0  68613-4 0  9998
2 43616  93.0297 328.0869 0014498 283.4976  76.4661 15.37495040 29192
ELFIN-A                 
1 43617U 18070E   19083.64448753  .00002392  00000-0  65103-4 0  9994
2 43617  93.0351 328.2332 0013522 279.9497  80.0230 15.37525354 29191
CUBEBEL-1 (BSUSAT-1)    
1 43666U 18083E   19084.15981855  .00000660  00000-0  36389-4 0  9994
2 43666  97.5275 109.1944 0016755 121.8964 318.3436 15.17378036 22312
DEBRISSAT-2             
1 43680U 98067PR  19083.96096882  .00015717  00000-0  19856-3 0  9993
2 43680  51.6385  54.7361 0003510 154.3385 205.7770 15.59729458 43207
CICERO 10               
1 43690U 18088A   19083.82172221  .00001038  00000-0  46929-4 0  9999
2 43690  85.0418  15.0271 0015988 154.5369 205.6663 15.19478526 20312
IRVINE01                
1 43693U 18088D   19084.16417284  .00001965  00000-0  86435-4 0  9996
2 43693  85.0393  14.5769 0019889 141.0870 219.1808 15.20985305 20361
PROXIMA I               
1 43694U 18088E   19084.19448951  .00000865  00000-0  36708-4 0  9991
2 43694  85.0362  14.4385 0021171 133.6163 226.6840 15.21219979 20378
PROXIMA II              
1 43696U 18088G   19084.19394806  .00000869  00000-0  36867-4 0  9992
2 43696  85.0363  14.4395 0021206 133.5875 226.7132 15.21225554 20371
FACSAT-1                
1 43721U 18096C   19084.17129793  .00001173  00000-0  48380-4 0  9991
2 43721  97.4677 154.1560 0016558 271.3162  88.6179 15.26002278 17693
CENTAURI-2              
1 43722U 18096D   19084.16262199  .00001461  00000-0  59256-4 0  9993
2 43722  97.4675 154.1671 0016688 272.0709  87.8618 15.26165711 17684
SIRION PATHFINDER-2     
1 43759U 18099B   19084.18706013 -.00000149  00000-0 -83294-5 0  9990
2 43759  97.7520 157.1909 0013085 243.1279 116.8605 14.95084555 16647
CORVUS-BC 4             
1 43767U 18099K   19083.82660554  .00000232  00000-0  26759-4 0  9991
2 43767  97.7510 156.7178 0010408 246.9546 113.0577 14.94531451 16594
SHIELDS 1               
1 43850U 18104B   19083.52938488  .00000041  00000-0  00000-0 0  9997
2 43850  85.0287 113.4064 0012256 289.3737  70.6245 15.20996137 14929
STF-1                   
1 43852U 18104D   19083.63651656  .00000040  00000-0  00000+0 0  9998
2 43852  85.0319 113.4567 0012977 306.1458  53.8611 15.20412666 14934
LUME 1                  
1 43908U 18111AJ  19084.19417146  .00000865  00000-0  38311-4 0  9990
2 43908  97.2959 351.7555 0020236 295.5103  64.4041 15.24137849 13429
AOBA VELOX-IV           
1 43940U 19003J   19084.16799656  .00001413  00000-0  61720-4 0  9993
2 43940  97.2872 144.5826 0025095  18.3743  41.1705 15.23466220 10060
CATSAT-2                
1 44029U 98067PV  19083.78600133  .00007430  00000-0  11693-3 0  9995
2 44029  51.6400  60.3318 0004637 178.0184 182.0826 15.54704023  8205
DELPHINI                
1 44030U 98067PW  19083.33533587  .00008962  00000-0  13930-3 0  9993
2 44030  51.6392  62.5704 0004317 171.7769 188.3294 15.54748853  8100
UNITE                   
1 44031U 98067PX  19084.17443720  .00005614  00000-0  90796-4 0  9993
2 44031  51.6398  58.4243 0003172 168.8903 191.2158 15.54493652  8234
TECHEDSAT 8             
1 44032U 98067PY  19083.89591418  .00017326  00000-0  25272-3 0  9999
2 44032  51.6392  59.5646 0003160 156.7114 203.4021 15.55778844  8173
CATSAT-1                
1 44033U 98067PZ  19083.33594109  .00007489  00000-0  11787-3 0  9994
2 44033  51.6398  62.5761 0004520 175.9133 184.1896 15.54684709  8043
